ONEWEB-0196             
1 48218U 21031J   25076.58647840 -.00001462  00000+0 -39786-2 0  9991
2 48218  87.9075  20.4946 0001791  78.0327 282.1003 13.14487315188247
ONEWEB-0183             
1 48219U 21031K   25076.33273225 -.00000191  00000+0 -54912-3 0  9994
2 48219  87.9076  20.5587 0001753  83.1467 276.9862 13.14501830188301
ONEWEB-0185             
1 48220U 21031L   25076.58725000  .00000174  00000+0  43479-3 0  9991
2 48220  87.9074  20.4786 0001598  77.3607 282.7701 13.14501780188265
ONEWEB-0187             
1 48221U 21031M   25076.78660839 -.00051205  00000+0 -14022+0 0  9993
2 48221  87.9065  20.4743 0001698  83.4917 276.6406 13.13865991188307
ONEWEB-0192             
1 48222U 21031N   25076.53729818  .00000175  00000+0  43658-3 0  9999
2 48222  87.9076  20.5224 0001868  75.8327 284.3010 13.14501897188191
ONEWEB-0219             
1 48223U 21031P   25076.59281040  .00000222  00000+0  56559-3 0  9993
2 48223  87.9074  20.4846 0001670  77.4002 282.7314 13.14503968188390
ONEWEB-0202             
1 48224U 21031Q   25076.34543011  .00000015  00000+0  65824-5 0  9993
2 48224  87.9072  20.5494 0001985  56.9023 303.2297 13.14503789188348
ONEWEB-0204             
1 48225U 21031R   25076.53175898  .00000189  00000+0  47654-3 0  9990
2 48225  87.9075  20.5248 0001784  89.4797 270.6537 13.14502137188277
